     2              NAVIGATION DATA                         RINEX VERSION / TYPE
CCRINEXN V1.6.0 UX  CDDIS               15-JUN-12 15:33     PGM / RUN BY / DATE 
IGS BROADCAST EPHEMERIS FILE                                COMMENT             
    0.1397D-07  0.2235D-07 -0.1192D-06 -0.1192D-06          ION ALPHA           
    0.1106D+06  0.1638D+06 -0.6554D+05 -0.5243D+06          ION BETA            
   -0.186264514923D-08 0.000000000000D+00   503808      668 DELTA-UTC: A0,A1,T,W
    15                                                      LEAP SECONDS        
                                                            END OF HEADER       
 2 12  6 14  0  0  0.0 0.393569003791D-03 0.125055521494D-11 0.000000000000D+00
    0.430000000000D+02-0.728125000000D+01 0.511057018926D-08 0.170817814731D+01
   -0.277534127235D-06 0.112819300266D-01 0.888295471668D-05 0.515370741272D+04
    0.345600000000D+06-0.115483999252D-06-0.149945787128D+01 0.204890966415D-06
    0.938222256037D+00 0.200125000000D+03-0.277322514869D+01-0.826284374256D-08
   -0.519664478116D-09 0.100000000000D+01 0.169200000000D+04 0.000000000000D+00
    0.200000000000D+01 0.000000000000D+00-0.172294676304D-07 0.430000000000D+02
    0.338400000000D+06 0.000000000000D+00 0.000000000000D+00 0.000000000000D+00
 3 12  6 14  0  0  0.0 0.620549544692D-04 0.500222085975D-11 0.000000000000D+00
    0.350000000000D+02-0.390625000000D+01 0.552808740989D-08 0.188389563076D+01
   -0.499188899994D-06 0.153801714769D-01 0.619143247604D-05 0.515371637917D+04
    0.345600000000D+06-0.128522515297D-06-0.266381644016D+01-0.381842255592D-06
    0.931530975536D+00 0.245593750000D+03 0.119459437332D+01-0.839392106908D-08
    0.251796202608D-09 0.000000000000D+00 0.169200000000D+04 0.000000000000D+00
    0.200000000000D+01 0.000000000000D+00-0.465661287308D-08 0.350000000000D+02
    0.339180000000D+06 0.400000000000D+01 0.000000000000D+00 0.000000000000D+00
 4 12  6 14  0  0  0.0 0.213488936424D-03 0.113686837722D-10 0.000000000000D+00
    0.580000000000D+02-0.712500000000D+01 0.505771069470D-08-0.137499768871D+01
   -0.361353158951D-06 0.999720185064D-02 0.834465026855D-05 0.515361010552D+04
    0.345600000000D+06 0.260770320892D-06-0.148257189066D+01 0.633299350738D-07
    0.937283457618D+00 0.205125000000D+03 0.859724883632D+00-0.814998202259D-08
   -0.390373400272D-09 0.100000000000D+01 0.169200000000D+04 0.000000000000D+00
    0.200000000000D+01 0.000000000000D+00-0.605359673500D-08 0.580000000000D+02
    0.338400000000D+06 0.000000000000D+00 0.000000000000D+00 0.000000000000D+00
 5 12  6 14  0  0  0.0-0.325088389218D-03-0.363797880709D-11 0.000000000000D+00
    0.300000000000D+02 0.831250000000D+02 0.454661774896D-08-0.247661194108D+01
    0.430271029472D-05 0.266654731240D-02 0.848993659020D-05 0.515368313789D+04
    0.345600000000D+06 0.298023223877D-07-0.435936760756D+00 0.689178705216D-07
    0.951069946395D+00 0.212406250000D+03 0.221882448420D+00-0.801783439641D-08
    0.235724096492D-10 0.100000000000D+01 0.169200000000D+04 0.000000000000D+00
    0.200000000000D+01 0.000000000000D+00-0.102445483208D-07 0.300000000000D+02
    0.338418000000D+06 0.400000000000D+01 0.000000000000D+00 0.000000000000D+00
 6 12  6 14  0  0  0.0 0.184332020581D-04-0.352429196937D-11 0.000000000000D+00
    0.720000000000D+02 0.812500000000D+00 0.536272337895D-08-0.251553738383D+01
    0.143423676491D-06 0.736648717429D-02 0.616349279880D-05 0.515368373108D+04
    0.345600000000D+06-0.128522515297D-06-0.258707193473D+01 0.987201929092D-07
    0.938345044603D+00 0.249500000000D+03-0.523150804725D+00-0.829963142725D-08
    0.188222125921D-09 0.000000000000D+00 0.169200000000D+04 0.000000000000D+00
    0.200000000000D+01 0.000000000000D+00-0.512227416039D-08 0.720000000000D+02
    0.338400000000D+06 0.400000000000D+01 0.000000000000D+00 0.000000000000D+00
 7 12  6 14  0  0  0.0 0.904211774468D-04 0.363797880709D-11 0.000000000000D+00
    0.900000000000D+02-0.602187500000D+02 0.411124267833D-08 0.349558629640D+00
   -0.312924385071D-05 0.548775563948D-02 0.618025660515D-05 0.515360870171D+04
    0.345600000000D+06 0.689178705216D-07 0.167542752817D+01 0.558793544769D-07
    0.975641680215D+00 0.269156250000D+03-0.302805695514D+01-0.801354808216D-08
   -0.503592405216D-10 0.100000000000D+01 0.169200000000D+04 0.000000000000D+00
    0.200000000000D+01 0.000000000000D+00-0.107102096081D-07 0.900000000000D+02
    0.338418000000D+06 0.400000000000D+01 0.000000000000D+00 0.000000000000D+00
 8 12  6 14  0  0  0.0 0.145891681313D-05 0.113686837722D-12 0.000000000000D+00
    0.160000000000D+02-0.606875000000D+02 0.366622414152D-08-0.349953623373D+00
   -0.310689210892D-05 0.123210623860D-01 0.702962279320D-05 0.515367577553D+04
    0.345600000000D+06 0.189989805222D-06 0.175916990223D+01 0.745058059692D-07
    0.997856326779D+00 0.261187500000D+03-0.296654361106D+01-0.783318342639D-08
   -0.239295681911D-10 0.100000000000D+01 0.169200000000D+04 0.000000000000D+00
    0.200000000000D+01 0.000000000000D+00-0.372529029846D-08 0.160000000000D+02
    0.338418000000D+06 0.400000000000D+01 0.000000000000D+00 0.000000000000D+00
 9 12  6 14  0  0  0.0 0.164865981787D-03 0.250111042988D-11 0.000000000000D+00
    0.710000000000D+02-0.613750000000D+02 0.399266619766D-08-0.361641022200D+00
   -0.339560210705D-05 0.175365484320D-01 0.747665762901D-05 0.515362260628D+04
    0.345600000000D+06-0.208616256714D-06 0.164980303315D+01 0.782310962677D-07
    0.984368340584D+00 0.252906250000D+03 0.162370196477D+01-0.818855561135D-08
   -0.178578870441D-10 0.100000000000D+01 0.169200000000D+04 0.000000000000D+00
    0.200000000000D+01 0.000000000000D+00-0.558793544769D-08 0.710000000000D+02
    0.338418000000D+06 0.400000000000D+01 0.000000000000D+00 0.000000000000D+00
10 12  6 14  0  0  0.0-0.413670204580D-04-0.125055521494D-11 0.000000000000D+00
    0.930000000000D+02 0.800937500000D+02 0.458197657593D-08-0.221358310035D+01
    0.412948429585D-05 0.113010818604D-01 0.808387994766D-05 0.515370688057D+04
    0.345600000000D+06 0.167638063431D-07-0.414475389729D+00-0.912696123123D-07
    0.945961657363D+00 0.216875000000D+03 0.751777192846D+00-0.789354270836D-08
    0.592881854722D-10 0.100000000000D+01 0.169200000000D+04 0.000000000000D+00
    0.200000000000D+01 0.000000000000D+00-0.232830643654D-08 0.930000000000D+02
    0.338400000000D+06 0.000000000000D+00 0.000000000000D+00 0.000000000000D+00
11 12  6 14  0  0  0.0-0.271380878985D-03-0.397903932026D-11 0.000000000000D+00
    0.950000000000D+02-0.271562500000D+02 0.658598861858D-08 0.441381229826D+00
   -0.116042792797D-05 0.129725931911D-01 0.678189098835D-05 0.515367291832D+04
    0.345600000000D+06-0.169500708580D-06-0.175670159808D+01 0.931322574615D-07
    0.887746298242D+00 0.209875000000D+03 0.105255805803D+01-0.919752597102D-08
   -0.416088760338D-09 0.100000000000D+01 0.169200000000D+04 0.000000000000D+00
    0.200000000000D+01 0.000000000000D+00-0.116415321827D-07 0.950000000000D+02
    0.338418000000D+06 0.400000000000D+01 0.000000000000D+00 0.000000000000D+00
12 12  6 14  0  0  0.0 0.743940472603D-04 0.204636307899D-11 0.000000000000D+00
    0.590000000000D+02-0.181562500000D+02 0.419481738234D-08 0.367266403034D-01
   -0.864267349243D-06 0.411147647537D-02 0.914558768272D-05 0.515378061295D+04
    0.345600000000D+06 0.726431608200D-07 0.273204724366D+01 0.204890966415D-07
    0.980291479018D+00 0.216593750000D+03 0.772942773541D-01-0.782139686350D-08
    0.405374039891D-09 0.100000000000D+01 0.169200000000D+04 0.000000000000D+00
    0.200000000000D+01 0.000000000000D+00-0.121071934700D-07 0.590000000000D+02
    0.340158000000D+06 0.400000000000D+01 0.000000000000D+00 0.000000000000D+00
13 12  6 14  0  0  0.0 0.201173592359D-03-0.250111042988D-11 0.000000000000D+00
    0.220000000000D+02 0.260625000000D+02 0.395230748661D-08 0.258508827487D+01
    0.140815973282D-05 0.498501025140D-02 0.356510281563D-05 0.515366006470D+04
    0.345600000000D+06 0.391155481338D-07 0.704897552898D+00 0.204890966415D-07
    0.985706828703D+00 0.323281250000D+03 0.201843037570D+01-0.790961518151D-08
    0.107147320259D-11 0.100000000000D+01 0.169200000000D+04 0.000000000000D+00
    0.200000000000D+01 0.000000000000D+00-0.111758708954D-07 0.220000000000D+02
    0.338700000000D+06 0.000000000000D+00 0.000000000000D+00 0.000000000000D+00
14 12  6 14  0  0  0.0 0.205067452043D-03 0.795807864051D-12 0.000000000000D+00
    0.490000000000D+02 0.288750000000D+02 0.409267047615D-08 0.279052548184D+01
    0.150129199028D-05 0.640875648242D-02 0.359117984772D-05 0.515359969521D+04
    0.345600000000D+06 0.298023223877D-07 0.678078766668D+00-0.260770320892D-07
    0.978552022608D+00 0.319125000000D+03-0.207127035206D+01-0.798640409436D-08
    0.850035407387D-10 0.000000000000D+00 0.169200000000D+04 0.000000000000D+00
    0.200000000000D+01 0.000000000000D+00-0.884756445885D-08 0.490000000000D+02
    0.338400000000D+06 0.400000000000D+01 0.000000000000D+00 0.000000000000D+00
15 12  6 14  0  0  0.0-0.917208380997D-04-0.227373675443D-12 0.000000000000D+00
    0.750000000000D+02 0.332187500000D+02 0.499413665977D-08 0.231121535492D+01
    0.171735882759D-05 0.439293286763D-02 0.316835939884D-05 0.515357336807D+04
    0.345600000000D+06-0.670552253723D-07 0.589706455847D+00 0.316649675369D-07
    0.945414524538D+00 0.310250000000D+03 0.515010215671D-01-0.849892511923D-08
    0.171435712848D-10 0.100000000000D+01 0.169200000000D+04 0.000000000000D+00
    0.200000000000D+01 0.000000000000D+00-0.102445483208D-07 0.750000000000D+02
    0.338418000000D+06 0.400000000000D+01 0.000000000000D+00 0.000000000000D+00
